*******************************************************************************
 Revised: April 12, 2021       Solar System Barycenter                        0

 Dynamical point 
 ---------------
 The center of mass for the solar system. See object 10 for Sun ephemeris.
*******************************************************************************


*******************************************************************************
Ephemeris / WWW_USER Mon Feb  7 17:57:06 2022 Pasadena, USA      / Horizons    
*******************************************************************************
Target body name: Solar System Barycenter (0)     {source: DE441}
Center body name: Sun (10)                        {source: DE441}
Center-site name: BODYCENTRIC
*******************************************************************************
Start time      : A.D. 2021-Jan-01 00:08:00.0000 UT      
Stop  time      : A.D. 2021-Dec-31 23:59:00.0000 UT      
Step-size       : 40 minutes
*******************************************************************************
Target pole/equ : MARSIAU                         {East-longitude positive}
Target radii    : 696000.0 x 696000.0 x 696000.0 k{Equator, meridian, pole}    
Center geodetic : 0.00000000,0.00000000,0.0000000 {E-lon(deg),Lat(deg),Alt(km)}
Center cylindric: 0.00000000,0.00000000,0.0000000 {E-lon(deg),Dxy(km),Dz(km)}
Center pole/equ : IAU_SUN                         {East-longitude positive}
Center radii    : 696000.0 x 696000.0 x 696000.0 k{Equator, meridian, pole}    
Target primary  : Sun
Vis. interferer : None
Rel. light bend : Sun                             {source: DE441}
Rel. lght bnd GM: 1.3271E+11 km^3/s^2                                          
Atmos refraction: NO (AIRLESS)
RA format       : HMS
Time format     : CAL 
EOP file        : eop.220206.p220502                                           
EOP coverage    : DATA-BASED 1962-JAN-20 TO 2022-FEB-06. PREDICTS-> 2022-MAY-01
Units conversion: 1 au= 149597870.700 km, c= 299792.458 km/s, 1 day= 86400.0 s 
Table cut-offs 1: Elevation (-90.0deg=NO ),Airmass     n.a.    , Daylight (NO )
Table cut-offs 2: Solar elongation (  0.0,180.0=NO ),Local Hour Angle( 0.0=NO )
Table cut-offs 3: RA/DEC angular rate (     0.0=NO )                           
*******************************************************************************
 Date__(UT)__HR:MN     R.A._____(ICRF)_____DEC             delta      deldot
****************************************************************************
$$SOE
 2021-Jul-11 07:28     22 04 59.59 -12 44 33.0  0.00914392430233   0.0012460
 2021-Jul-11 08:08     22 04 59.96 -12 44 31.2  0.00914394429085   0.0012459
 2021-Jul-11 08:48     22 05 00.33 -12 44 29.3  0.00914396427729   0.0012457
 2021-Jul-11 09:28     22 05 00.69 -12 44 27.4  0.00914398426166   0.0012456
 2021-Jul-11 10:08     22 05 01.06 -12 44 25.5  0.00914400424395   0.0012455
 2021-Jul-11 10:48     22 05 01.43 -12 44 23.6  0.00914402422418   0.0012454
 2021-Jul-11 11:28     22 05 01.79 -12 44 21.8  0.00914404420233   0.0012452
 2021-Jul-11 12:08     22 05 02.16 -12 44 19.9  0.00914406417840   0.0012451
 2021-Jul-11 12:48     22 05 02.52 -12 44 18.0  0.00914408415241   0.0012450
 2021-Jul-11 13:28     22 05 02.89 -12 44 16.1  0.00914410412434   0.0012448
 2021-Jul-11 14:08     22 05 03.26 -12 44 14.2  0.00914412409419   0.0012447
 2021-Jul-11 14:48     22 05 03.62 -12 44 12.4  0.00914414406197   0.0012446
 2021-Jul-11 15:28     22 05 03.99 -12 44 10.5  0.00914416402768   0.0012444
 2021-Jul-11 16:08     22 05 04.36 -12 44 08.6  0.00914418399131   0.0012443
 2021-Jul-11 16:48     22 05 04.72 -12 44 06.7  0.00914420395286   0.0012442
 2021-Jul-11 17:28     22 05 05.09 -12 44 04.9  0.00914422391234   0.0012441
 2021-Jul-11 18:08     22 05 05.45 -12 44 03.0  0.00914424386974   0.0012439
 2021-Jul-11 18:48     22 05 05.82 -12 44 01.1  0.00914426382507   0.0012438
 2021-Jul-11 19:28     22 05 06.19 -12 43 59.2  0.00914428377832   0.0012437
 2021-Jul-11 20:08     22 05 06.55 -12 43 57.3  0.00914430372948   0.0012435
 2021-Jul-11 20:48     22 05 06.92 -12 43 55.5  0.00914432367858   0.0012434
 2021-Jul-11 21:28     22 05 07.29 -12 43 53.6  0.00914434362559   0.0012433
 2021-Jul-11 22:08     22 05 07.65 -12 43 51.7  0.00914436357052   0.0012432
 2021-Jul-11 22:48     22 05 08.02 -12 43 49.8  0.00914438351338   0.0012430
 2021-Jul-11 23:28     22 05 08.38 -12 43 47.9  0.00914440345416   0.0012429
 2021-Jul-12 00:08     22 05 08.75 -12 43 46.1  0.00914442339285   0.0012428
 2021-Jul-12 00:48     22 05 09.12 -12 43 44.2  0.00914444332947   0.0012426
 2021-Jul-12 01:28     22 05 09.48 -12 43 42.3  0.00914446326400   0.0012425
 2021-Jul-12 02:08     22 05 09.85 -12 43 40.4  0.00914448319646   0.0012424
 2021-Jul-12 02:48     22 05 10.22 -12 43 38.5  0.00914450312683   0.0012422
 2021-Jul-12 03:28     22 05 10.58 -12 43 36.7  0.00914452305512   0.0012421
 2021-Jul-12 04:08     22 05 10.95 -12 43 34.8  0.00914454298133   0.0012420
 2021-Jul-12 04:48     22 05 11.31 -12 43 32.9  0.00914456290546   0.0012419
 2021-Jul-12 05:28     22 05 11.68 -12 43 31.0  0.00914458282751   0.0012417
 2021-Jul-12 06:08     22 05 12.05 -12 43 29.1  0.00914460274747   0.0012416
 2021-Jul-12 06:48     22 05 12.41 -12 43 27.3  0.00914462266535   0.0012415
 2021-Jul-12 07:28     22 05 12.78 -12 43 25.4  0.00914464258115   0.0012413
 2021-Jul-12 08:08     22 05 13.15 -12 43 23.5  0.00914466249486   0.0012412
 2021-Jul-12 08:48     22 05 13.51 -12 43 21.6  0.00914468240649   0.0012411
 2021-Jul-12 09:28     22 05 13.88 -12 43 19.7  0.00914470231604   0.0012409
 2021-Jul-12 10:08     22 05 14.24 -12 43 17.9  0.00914472222350   0.0012408
 2021-Jul-12 10:48     22 05 14.61 -12 43 16.0  0.00914474212887   0.0012407
 2021-Jul-12 11:28     22 05 14.98 -12 43 14.1  0.00914476203216   0.0012406
 2021-Jul-12 12:08     22 05 15.34 -12 43 12.2  0.00914478193337   0.0012404
 2021-Jul-12 12:48     22 05 15.71 -12 43 10.3  0.00914480183249   0.0012403
 2021-Jul-12 13:28     22 05 16.08 -12 43 08.5  0.00914482172952   0.0012402
 2021-Jul-12 14:08     22 05 16.44 -12 43 06.6  0.00914484162446   0.0012400
 2021-Jul-12 14:48     22 05 16.81 -12 43 04.7  0.00914486151732   0.0012399
 2021-Jul-12 15:28     22 05 17.17 -12 43 02.8  0.00914488140809   0.0012398
 2021-Jul-12 16:08     22 05 17.54 -12 43 00.9  0.00914490129678   0.0012396
 2021-Jul-12 16:48     22 05 17.91 -12 42 59.1  0.00914492118338   0.0012395
 2021-Jul-12 17:28     22 05 18.27 -12 42 57.2  0.00914494106789   0.0012394
 2021-Jul-12 18:08     22 05 18.64 -12 42 55.3  0.00914496095031   0.0012393
 2021-Jul-12 18:48     22 05 19.01 -12 42 53.4  0.00914498083064   0.0012391
 2021-Jul-12 19:28     22 05 19.37 -12 42 51.5  0.00914500070888   0.0012390
 2021-Jul-12 20:08     22 05 19.74 -12 42 49.7  0.00914502058504   0.0012389
 2021-Jul-12 20:48     22 05 20.10 -12 42 47.8  0.00914504045910   0.0012387
 2021-Jul-12 21:28     22 05 20.47 -12 42 45.9  0.00914506033108   0.0012386
 2021-Jul-12 22:08     22 05 20.84 -12 42 44.0  0.00914508020097   0.0012385
 2021-Jul-12 22:48     22 05 21.20 -12 42 42.1  0.00914510006876   0.0012383
 2021-Jul-12 23:28     22 05 21.57 -12 42 40.3  0.00914511993447   0.0012382
 2021-Jul-13 00:08     22 05 21.94 -12 42 38.4  0.00914513979808   0.0012381
 2021-Jul-13 00:48     22 05 22.30 -12 42 36.5  0.00914515965961   0.0012380
 2021-Jul-13 01:28     22 05 22.67 -12 42 34.6  0.00914517951904   0.0012378
 2021-Jul-13 02:08     22 05 23.03 -12 42 32.7  0.00914519937638   0.0012377
 2021-Jul-13 02:48     22 05 23.40 -12 42 30.9  0.00914521923163   0.0012376
 2021-Jul-13 03:28     22 05 23.77 -12 42 29.0  0.00914523908479   0.0012374
 2021-Jul-13 04:08     22 05 24.13 -12 42 27.1  0.00914525893586   0.0012373
 2021-Jul-13 04:48     22 05 24.50 -12 42 25.2  0.00914527878483   0.0012372
 2021-Jul-13 05:28     22 05 24.87 -12 42 23.3  0.00914529863171   0.0012370
 2021-Jul-13 06:08     22 05 25.23 -12 42 21.5  0.00914531847650   0.0012369
 2021-Jul-13 06:48     22 05 25.60 -12 42 19.6  0.00914533831920   0.0012368
 2021-Jul-13 07:28     22 05 25.96 -12 42 17.7  0.00914535815980   0.0012366
 2021-Jul-13 08:08     22 05 26.33 -12 42 15.8  0.00914537799831   0.0012365
 2021-Jul-13 08:48     22 05 26.70 -12 42 13.9  0.00914539783472   0.0012364
 2021-Jul-13 09:28     22 05 27.06 -12 42 12.1  0.00914541766904   0.0012363
 2021-Jul-13 10:08     22 05 27.43 -12 42 10.2  0.00914543750127   0.0012361
 2021-Jul-13 10:48     22 05 27.80 -12 42 08.3  0.00914545733140   0.0012360
 2021-Jul-13 11:28     22 05 28.16 -12 42 06.4  0.00914547715943   0.0012359
 2021-Jul-13 12:08     22 05 28.53 -12 42 04.5  0.00914549698538   0.0012357
 2021-Jul-13 12:48     22 05 28.89 -12 42 02.6  0.00914551680922   0.0012356
 2021-Jul-13 13:28     22 05 29.26 -12 42 00.8  0.00914553663097   0.0012355
 2021-Jul-13 14:08     22 05 29.63 -12 41 58.9  0.00914555645063   0.0012353
 2021-Jul-13 14:48     22 05 29.99 -12 41 57.0  0.00914557626819   0.0012352
 2021-Jul-13 15:28     22 05 30.36 -12 41 55.1  0.00914559608365   0.0012351
 2021-Jul-13 16:08     22 05 30.73 -12 41 53.2  0.00914561589702   0.0012350
 2021-Jul-13 16:48     22 05 31.09 -12 41 51.4  0.00914563570829   0.0012348
 2021-Jul-13 17:28     22 05 31.46 -12 41 49.5  0.00914565551747   0.0012347
 2021-Jul-13 18:08     22 05 31.82 -12 41 47.6  0.00914567532455   0.0012346
 2021-Jul-13 18:48     22 05 32.19 -12 41 45.7  0.00914569512953   0.0012344
 2021-Jul-13 19:28     22 05 32.56 -12 41 43.8  0.00914571493241   0.0012343
 2021-Jul-13 20:08     22 05 32.92 -12 41 42.0  0.00914573473320   0.0012342
 2021-Jul-13 20:48     22 05 33.29 -12 41 40.1  0.00914575453189   0.0012340
 2021-Jul-13 21:28     22 05 33.66 -12 41 38.2  0.00914577432848   0.0012339
 2021-Jul-13 22:08     22 05 34.02 -12 41 36.3  0.00914579412297   0.0012338
 2021-Jul-13 22:48     22 05 34.39 -12 41 34.4  0.00914581391537   0.0012336
 2021-Jul-13 23:28     22 05 34.75 -12 41 32.5  0.00914583370567   0.0012335
